; Stock size: 500, 500, 250

T1 M6 ; Rough outer

G0 X325.
Z0.
G2 X-325. I-325. F1000.
X325. I325.
G0 Z300.

T2 M6 ; Dome

Z5.
G1 X270.
G2 X-270. I-270.
X270. I270.

G1 Z10.
X265.
G2 X-265. I-265.
X265. I265.

G1 Z15.
X260.
G2 X-260. I-260.
X260. I260.

G1 Z20.
X255.
G2 X-255. I-255.
X255. I255.

G1 Z25.
X250.
G2 X-250. I-250.
X250. I250.

G1 Z30.
X245.
G2 X-245. I-245.
X245. I245.

G1 Z35.
X240.
G2 X-240. I-240.
X240. I240.

G1 Z40.
X235.
G2 X-235. I-235.
X235. I235.

G1 Z45.
X230.
G2 X-230. I-230.
X230. I230.

G1 Z50.
X225.
G2 X-225. I-225.
X225. I225.

G1 Z55.
X220.
G2 X-220. I-220.
X220. I220.

G1 Z60.
X215.
G2 X-215. I-215.
X215. I215.

G1 Z65.
X210.
G2 X-210. I-210.
X210. I210.

G1 Z70.
X205.
G2 X-205. I-205.
X205. I205.

G1 Z75.
X200.
G2 X-200. I-200.
X200. I200.

G1 Z80.
X195.
G2 X-195. I-195.
X195. I195.

G1 Z85.
X190.
G2 X-190. I-190.
X190. I190.

G1 Z90.
X185.
G2 X-185. I-185.
X185. I185.

G1 Z95.
X180.
G2 X-180. I-180.
X180. I180.

G1 Z100.
X175.
G2 X-175. I-175.
X175. I175.

G1 Z105.
X170.
G2 X-170. I-170.
X170. I170.

G1 Z110.
X165.
G2 X-165. I-165.
X165. I165.

G1 Z115.
X160.
G2 X-160. I-160.
X160. I160.

G1 Z120.
X155.
G2 X-155. I-155.
X155. I155.

G1 Z125.
X150.
G2 X-150. I-150.
X150. I150.

G1 Z130.
X145.
G2 X-145. I-145.
X145. I145.

G1 Z135.
X140.
G2 X-140. I-140.
X140. I140.

G1 Z140.
X135.
G2 X-135. I-135.
X135. I135.

G1 Z145.
X130.
G2 X-130. I-130.
X130. I130.

G1 Z150.
X125.
G2 X-125. I-125.
X125. I125.

G1 Z155.
X120.
G2 X-120. I-120.
X120. I120.

G1 Z160.
X115.
G2 X-115. I-115.
X115. I115.

G1 Z165.
X110.
G2 X-110. I-110.
X110. I110.

G1 Z170.
X105.
G2 X-105. I-105.
X105. I105.

G1 Z175.
X100.
G2 X-100. I-100.
X100. I100.

G1 Z180.
X95.
G2 X-95. I-95.
X95. I95.

G1 Z185.
X90.
G2 X-90. I-90.
X90. I90.

G1 Z190.
X85.
G2 X-85. I-85.
X85. I85.

G1 Z195.
X80.
G2 X-80. I-80.
X80. I80.

G1 Z200.
X75.
G2 X-75. I-75.
X75. I75.

G1 Z205.
X70.
G2 X-70. I-70.
X70. I70.

G1 Z210.
X65.
G2 X-65. I-65.
X65. I65.

G1 Z215.
X60.
G2 X-60. I-60.
X60. I60.

G1 Z220.
X55.
G2 X-55. I-55.
X55. I55.

G1 Z225.
X50.
G2 X-50. I-50.
X50. I50.

G1 Z230.
X45.
G2 X-45. I-45.
X45. I45.

G1 Z235.
X40.
G2 X-40. I-40.
X40. I40.

G1 Z240.
X35.
G2 X-35. I-35.
X35. I35.

G1 Z245.
X30.
G2 X-30. I-30.
X30. I30.

G1 Z250.
X25.
G2 X-25. I-25.
X25. I25.

G1 X0.
G0 Z300.

M30
